QIANFAN-33              
1 61566U 24185Q   26009.20257651  .00000338  00000+0  23456-3 0  9995
2 61566  88.9780  75.7504 0005602 226.2217 133.8497 13.96578816 72995
QIANFAN-34              
1 61567U 24185R   26009.19807104  .00000343  00000+0  21478-3 0  9996
2 61567  88.9758  75.2782 0004290 231.0455 129.0344 14.02334563 73204
QIANFAN-35              
1 61568U 24185S   26009.16611498  .00000704  00000+0  27808-3 0  9997
2 61568  88.9781  73.6640 0006627 176.0329 184.0919 14.28022280 74095
QIANFAN-36              
1 61569U 24185T   26009.19989088  .00000167  00000+0  22233-3 0  9994
2 61569  88.9767  78.1887 0004745 338.8929  21.2028 13.55598152 71642
QIANFAN-37              
1 62238U 24232B   26008.95192023  .00000042  00000+0  46180-4 0  9999
2 62238  88.9997  38.5803 0002242  77.8108 282.3295 13.50982180102844
QIANFAN-38              
1 62239U 24232C   26008.60630723  .00000039  00000+0  41295-4 0  9994
2 62239  89.0005  38.5329 0016390 115.0751 245.2104 13.50980021102858
QIANFAN-39              
1 62240U 24232D   26008.59116849  .00000160  00000+0  61569-4 0  9993
2 62240  88.9998  34.2357 0015848 359.2239   0.8926 14.25410228105213
QIANFAN-40              
1 62241U 24232E   26008.63922527  .00000042  00000+0  45697-4 0  9990
2 62241  89.0032  38.1215 0015312 121.8745 238.3899 13.50980112103229
